P/2016 S1 (PANSTARRS),e,94.7342,227.6621,273.2422,8.274717,0.0414071,0.71057631,92.7035,05/04.0/2023,2000,g 12.0,4.0
# From MPC106345
P/2016 WM48 (Lemmon),e,117.5996,59.9400,36.1520,8.170464,0.0422021,0.78351186,95.3884,05/04.0/2023,2000,g 15.0,4.0
# From MPEC 2021-P47
C/2016 X1 (Lemmon),e,26.4609,256.3318,224.4892,1443,0.0000180,0.99476450,0.0000,04/28.0809/2019,2000,g  6.0,4.0
# From MPEC 2022-OB6
C/2017 B3 (LINEAR),h,02/01.1249/2019,54.1626,2.1783,284.8326,1.000042,3.930646,2000,6.0,4.0
# From MPC103847
P/2017 B4 (PANSTARRS),e,20.0584,121.4578,11.0197,4.410520,0.1064068,0.36495152,359.9130,01/05.0/2017,2000,g 14.5,4.0
# From MPEC 2022-OB6
P/2017 D1 (Fuls),e,20.7691,82.1925,7.9570,4.827174,0.0929319,0.43714777,232.8387,05/04.0/2023,2000,g 14.0,4.0
# From MPEC 2022-OB6
P/2017 D4 (PANSTARRS),e,10.5532,264.9488,212.1103,7.547133,0.0475369,0.62923525,115.5761,05/04.0/2023,2000,g 13.0,4.0
# From MPC104794
P/2017 G1 (PANSTARRS),e,4.7856,249.6867,224.3297,7.274072,0.0502386,0.65399856,128.7158,05/04.0/2023,2000,g 13.5,4.0
# From MPC108595
P/2017 G2 (PANSTARRS),e,47.9632,79.8564,105.3733,8.048697,0.0431634,0.64762317,93.0160,05/04.0/2023,2000,g 13.0,4.0
# From MPEC 2023-J29
C/2017 K2 (PANSTARRS),h,12/19.6882/2022,87.5634,88.2359,236.2024,1.000738,1.796916,2000,1.5,4.0
# From MPEC 2021-N06
P/2017 K3 (Gasparovic),e,4.2736,354.3032,253.3925,5.584964,0.0746747,0.57900269,161.8850,05/04.0/2023,2000,g 14.5,4.0
# From MPEC 2021-P47
C/2017 K5 (PANSTARRS),h,03/27.2742/2020,82.2605,102.3967,172.0656,1.004984,7.684207,2000,5.0,4.0
# From MPEC 2022-OB6
C/2017 M4 (ATLAS),h,01/17.9639/2019,105.6348,65.9849,167.5867,1.001128,3.250010,2000,6.0,4.0
# From MPC118841
C/2017 M5 (TOTAS),h,06/03.8024/2018,15.8601,216.2882,92.8812,1.004713,6.007703,2000,6.5,4.0
# From MPC114599
P/2017 P1 (PANSTARRS),e,7.6888,221.3580,122.7931,7.915706,0.0442557,0.31064560,78.5966,05/04.0/2023,2000,g 10.0,4.0
# From MPC114599
C/2017 S3 (PANSTARRS),h,08/16.8808/2018,99.1723,171.2435,255.7753,1.000095,0.204243,2000,12.9,4.0
# From MPEC 2022-OB6
P/2017 S8 (PANSTARRS),e,29.8483,191.5191,254.8686,2.778460,0.2128129,0.39086733,49.1105,05/04.0/2023,2000,g 16.0,4.0
# From MPEC 2022-YN2
C/2017 T2 (PANSTARRS),e,57.2717,64.4223,92.9019,1541,0.0000163,0.99895350,0.0000,05/04.8716/2020,2000,g  5.0,4.0
# From MPC114600
C/2017 T3 (ATLAS),e,88.2742,230.2442,246.7869,1284,0.0000214,0.99935940,0.0000,07/19.4512/2018,2000,g 10.0,4.0
# From MPC115882
P/2017 TW13 (Lemmon),e,44.8512,322.2372,119.9206,7.135235,0.0517120,0.71040839,91.8865,05/04.0/2023,2000,g 15.0,2.0
# From MPEC 2022-K19
P/2017 U3 (PANSTARRS),e,15.9179,165.1030,296.2470,4.924091,0.0902018,0.09981497,133.7584,05/04.0/2023,2000,g 11.0,4.0
# From MPEC 2023-CD7
C/2017 U4 (PANSTARRS),e,158.2010,245.9057,158.9834,8479,0.0000013,0.99908887,0.0000,09/21.4462/2018,2000,g  7.0,4.0
# From MPEC 2023-A50
C/2017 U7 (PANSTARRS),h,09/15.4712/2019,142.6180,276.2744,326.4388,1.001904,6.428249,2000,8.3,2.0
# From MPC114601
P/2017 W3 (Gibbs),e,18.1693,210.1941,327.8044,7.829467,0.0449889,0.50632894,85.1435,05/04.0/2023,2000,g 10.5,4.0
# From MPEC 2021-R75
C/2017 X1 (PANSTARRS),e,31.3420,251.1626,283.1041,30.98447,0.0057146,0.84954487,10.2012,05/04.0/2023,2000,g 10.0,4.0
# From MPEC 2022-QD9
C/2017 Y2 (PANSTARRS),h,11/05.1106/2020,128.4399,66.0167,147.9320,1.001496,4.632100,2000,15.0,4.0
# From MPC111770
P/2017 Y3 (Leonard),e,27.5705,153.8705,67.5569,9.817227,0.0320421,0.86939495,61.2285,05/04.0/2023,2000,g 16.5,4.0
# From MPEC 2021-P47
C/2018 A3 (ATLAS),e,139.5414,194.2959,86.3580,360.0914,0.0001442,0.99089165,0.0000,01/10.5801/2019,2000,g  8.5,4.0
# From MPEC 2023-J29
C/2018 A4 (PANSTARRS),e,3.1511,97.5726,355.9575,12.18624,0.0231686,0.80398755,41.9404,05/04.0/2023,2000,g 14.0,4.0
# From MPC109147
P/2018 A5 (PANSTARRS),e,23.6147,87.7889,359.4885,5.627828,0.0738232,0.52359511,151.1382,05/04.0/2023,2000,g 15.0,4.0
# From MPEC 2022-ST7
C/2018 A6 (Gibbs),e,77.0682,340.3872,264.3420,15.03968,0.0168984,0.79932450,23.5341,05/04.0/2023,2000,g  9.0,4.0
# From MPC114601
P/2018 C1 (Lemmon-Read),e,5.1103,270.3222,235.6973,5.652130,0.0733476,0.53206758,139.0462,05/04.0/2023,2000,g 13.5,4.0
# From MPC114601
C/2018 C2 (Lemmon),e,34.4632,91.2794,133.9735,12538,0.0000007,0.99984367,0.0000,05/31.0541/2018,2000,g 13.0,4.0
# From MPEC 2022-M88
C/2018 DO4 (Lemmon),e,160.4426,251.4360,176.3146,25.33979,0.0077268,0.90472120,10.4792,05/04.0/2023,2000,g 11.0,4.0
# From MPC114602
C/2018 E1 (ATLAS),e,72.4958,146.8155,299.2803,53.88012,0.0024921,0.95005688,4.5896,05/04.0/2023,2000,g 10.5,4.0
# From MPC114602
C/2018 EN4 (NEOWISE),e,81.9589,136.1301,35.0122,17.90034,0.0130140,0.91838558,23.3875,05/04.0/2023,2000,g 15.0,4.0
# From MPEC 2023-CD7
C/2018 EF9 (Lemmon),e,84.6377,172.5679,72.6366,443.9544,0.0001054,0.99648020,0.0000,05/20.8670/2018,2000,g 18.0,2.0
# From MPEC 2021-R75
C/2018 F1 (Grauer),e,46.0851,177.2781,71.5744,236.4816,0.0002710,0.98732629,0.0000,12/11.6527/2018,2000,g 11.5,4.0
# From MPEC 2023-A50
C/2018 F4 (PANSTARRS),e,78.0847,26.5157,263.2154,5469,0.0000024,0.99937026,0.0000,12/02.8839/2019,2000,g 11.0,6.0
# From MPEC 2021-Y10
C/2018 F4-A,e,78.0849,26.5159,263.2122,5045,0.0000028,0.99931730,0.0000,12/02.8721/2019,2000,g 11.0,6.0
# From MPEC 2023-D41
C/2018 F4-B,e,78.0858,26.5154,263.1980,5799,0.0000022,0.99940609,0.0000,12/02.8088/2019,2000,g 11.0,6.0
# From MPC114602
P/2018 H2 (PANSTARRS),e,7.4377,67.7114,120.1063,4.385017,0.1073364,0.54223013,207.9174,05/04.0/2023,2000,g 16.6,2.0
# From MPEC 2023-J12
P/2018 HT3 (NEOWISE),e,29.2775,283.2110,216.3679,2.975177,0.1920591,0.82557033,6.7950,05/04.0/2023,2000,g 18.0,4.0
# From MPEC 2021-R75
C/2018 KJ3 (Lemmon),e,136.6651,91.6613,217.6532,922.9304,0.0000352,0.99607146,0.0000,09/09.9518/2019,2000,g 12.2,2.0
# From MPC114602
P/2018 L1 (PANSTARRS),e,10.5780,268.6079,18.0330,3.654281,0.1410916,0.48165170,230.6513,05/04.0/2023,2000,g 15.0,4.0
# From MPEC 2021-P47
C/2018 L2 (ATLAS),e,67.2425,242.9967,56.3336,255.0322,0.0002420,0.99326783,0.0000,12/01.9641/2018,2000,g 10.0,4.0
# From MPC114603
P/2018 L4 (PANSTARRS),e,26.6140,145.1839,140.6095,4.945911,0.0896055,0.65887371,155.7926,05/04.0/2023,2000,g 17.5,4.0
# From MPC119996
P/2018 L5 (Leonard),e,2.2090,219.0360,93.9622,3.629125,0.1425612,0.36412339,260.0970,05/04.0/2023,2000,g 14.5,4.0
# From MPC117070
C/2018 M1 (Catalina),e,37.2697,339.4250,14.2561,21.51669,0.0098751,0.93927821,17.3616,05/04.0/2023,2000,g 15.5,4.0
# From MPEC 2022-M21
C/2018 N1 (NEOWISE),e,159.4017,292.5599,354.7395,514.3633,0.0000845,0.99745726,0.0000,08/03.0981/2018,2000,g 15.5,4.0
# From MPEC 2022-YN2
C/2018 N2 (ASASSN),h,11/11.4570/2019,77.5546,25.2033,24.5015,1.001103,3.128586,2000,6.0,4.0
# From MPC114603
C/2018 O1 (ATLAS),e,153.9925,87.8078,162.7121,28.08839,0.0066209,0.94457849,11.2903,05/04.0/2023,2000,g 17.0,4.0
# From MPEC 2023-J29
P/2018 P3 (PANSTARRS),e,8.9148,59.1599,305.9999,3.003822,0.1893184,0.41711979,315.1834,05/04.0/2023,2000,g 14.5,4.0
# From MPC114603
P/2018 P4 (PANSTARRS),e,23.1063,353.0681,8.4604,6.686325,0.0570063,0.45046313,93.3096,05/04.0/2023,2000,g 12.0,4.0
# From MPEC 2021-P47
C/2018 P5 (PANSTARRS),e,7.2466,216.1933,132.0005,12.84759,0.0214028,0.64282760,32.6588,05/04.0/2023,2000,g 11.0,4.0
# From MPC118841
C/2018 R3 (Lemmon),e,69.7084,324.5653,112.7429,1585,0.0000156,0.99919042,0.0000,06/07.8771/2019,2000,g  9.5,4.0
# From MPC114603
C/2018 R5 (Lemmon),e,103.7442,171.1260,178.2274,22.91593,0.0089846,0.84143711,14.1474,05/04.0/2023,2000,g 11.5,4.0
# From MPEC 2022-QC6
C/2018 S2 (TESS),e,64.1453,85.0946,290.8324,14.36237,0.0181078,0.61874889,29.6836,05/04.0/2023,2000,g  7.5,4.0
# From MPEC 2023-J29
C/2018 U1 (Lemmon),h,11/03.1057/2021,108.3187,75.4946,180.4702,1.001471,4.992642,2000,5.0,4.0
# From MPC114604
C/2018 V1 (Machholz-Fujikawa-Iwamoto),h,12/02.8638/2018,144.1088,129.1239,89.1687,1.000368,0.390818,2000,12.0,4.0
# From MPC115884
C/2018 V2 (ATLAS),e,159.1674,357.0871,319.0504,25.08659,0.0078441,0.90088303,12.7125,05/04.0/2023,2000,g 15.0,4.0
# From MPEC 2023-CD7
P/2018 VN2 (Leonard),e,18.2576,226.4446,138.8912,4.062027,0.1203898,0.47866626,215.6506,05/04.0/2023,2000,g 15.0,4.0
# From MPEC 2022-VC5
A/2018 V3,e,164.9590,308.7139,3.6117,127.8530,0.0006818,0.98951981,0.0000,09/09.3567/2019,2000,g 15.7,2.0
# From MPEC 2022-M21
C/2018 V4 (Africano),e,69.0317,78.2691,359.9610,202.6566,0.0003416,0.98423183,0.0000,03/01.6051/2019,2000,g 12.5,4.0
# From MPEC 2021-P47
P/2018 V5 (Trujillo-Sheppard),e,10.5879,171.2849,260.6875,8.962960,0.0367305,0.47566758,61.4466,05/04.0/2023,2000,g 12.5,4.0
# From MPEC 2021-P47
C/2018 W1 (Catalina),e,83.3856,233.6675,251.2009,21.69066,0.0097565,0.93738892,14.1755,05/04.0/2023,2000,g 15.5,2.0
# From MPEC 2021-P47
C/2018 W2 (Africano),h,09/05.3177/2019,116.6217,181.8267,158.0927,1.000632,1.461820,2000,9.5,4.0
# From MPEC 2023-A50
A/2018 W3,e,104.8227,251.6748,313.9632,699.4421,0.0000533,0.99386625,0.0000,04/13.0694/2021,2000,g 10.5,2.0
# From MPC119996
C/2018 X2 (Fitzsimmons),e,23.0743,340.7965,161.9456,139.4536,0.0005985,0.98480029,0.0000,07/08.3386/2019,2000,g 12.0,4.0
# From MPC114604
C/2018 X3 (PANSTARRS),e,43.4148,78.8184,359.7575,12.37769,0.0226331,0.78258811,35.8668,05/04.0/2023,2000,g 14.5,4.0
# From MPEC 2023-HD1
C/2018 Y1 (Iwamoto),e,160.4154,147.4741,357.9045,129.6859,0.0006674,0.99009807,0.0000,02/05.6916/2019,2000,g  9.0,4.0
# From MPC114605
P/2018 Y2 (Africano),e,11.6850,297.1966,162.2492,7.453396,0.0484365,0.47934013,76.6735,05/04.0/2023,2000,g 11.5,4.0
# From MPC114605
P/2019 A1 (PANSTARRS),e,13.7532,312.2564,150.7128,5.115974,0.0851749,0.56925866,141.8756,05/04.0/2023,2000,g 16.0,4.0
# From MPEC 2021-P47
P/2019 A2 (ATLAS),e,14.8616,139.4407,323.8544,5.713605,0.0721670,0.38226316,117.2897,05/04.0/2023,2000,g 10.5,4.0
# From MPEC 2022-M21
P/2019 A3 (PANSTARRS),e,15.3751,31.2937,325.6741,3.144048,0.1767951,0.26607866,306.3324,05/04.0/2023,2000,g 16.0,4.0
# From MPEC 2022-L66
P/2019 A4 (PANSTARRS),e,13.3062,119.2431,343.0373,2.613520,0.2332735,0.08712477,14.3739,05/04.0/2023,2000,g 15.0,4.0
# From MPEC 2021-P47
